SatCatId,ObjectName,LaunchYear,OrbitalPeriod,LaunchMass,StatusCode,Inclination,Status,UcsData,OrbitClassEstimated,LaunchSiteCountry,Owner,UseType,Purpose,LaunchVehicleClass,TLE1,TLE2,MeanMotion,Eccentricity,OrbitClass
48061,ONEWEB-0163,2021,109.63,148.0,+,87.9,Active,1,LEO,Russia,UK,Commercial,Communications,Soyuz,1 48061U 21025V   23028.21933528 -.00000209  00000+0 -60838-3 0  9997,2 48061  87.9030 205.8151 0001191 109.3195 250.8063 13.13470340 91448,13.1347034,0.0001191,LEO
48062,ONEWEB-0159,2021,109.63,148.0,+,87.9,Active,1,LEO,Russia,UK,Commercial,Communications,Soyuz,1 48062U 21025W   23028.20874883 -.00000330  00000+0 -93865-3 0  9996,2 48062  87.9031 205.8347 0001296 112.3404 247.7862 13.13469450 91352,13.1346945,0.0001296,LEO
48063,ONEWEB-0164,2021,109.63,148.0,+,87.9,Active,1,LEO,Russia,UK,Commercial,Communications,Soyuz,1 48063U 21025X   23027.88499011 -.00000068  00000+0 -22138-3 0  9999,2 48063  87.9029 205.8770 0001338  82.1156 278.0125 13.13466800 91293,13.134668,0.0001338,LEO
48064,ONEWEB-0167,2021,109.63,148.0,+,87.9,Active,1,LEO,Russia,UK,Commercial,Communications,Soyuz,1 48064U 21025Y   23028.22041754 -.00000121  00000+0 -36695-3 0  9999,2 48064  87.9030 205.8177 0001269 105.9639 254.1630 13.13468783 91322,13.13468783,0.0001269,LEO
48065,ONEWEB-0166,2021,109.63,148.0,+,87.9,Active,1,LEO,Russia,UK,Commercial,Communications,Soyuz,1 48065U 21025Z   23028.01407458  .00000368  00000+0  97267-3 0  9997,2 48065  87.9026 205.8614 0001494 102.9096 257.2200 13.13468940 91375,13.1346894,0.0001494,LEO
48066,ONEWEB-0151,2021,109.63,148.0,+,87.9,Active,1,LEO,Russia,UK,Commercial,Communications,Soyuz,1 48066U 21025AA  23028.01619333  .00000423  00000+0  11246-2 0  9999,2 48066  87.9028 205.8623 0001361  81.3453 278.7830 13.13469559 91327,13.13469559,0.0001361,LEO
48067,ONEWEB-0170,2021,109.63,148.0,+,87.9,Active,1,LEO,Russia,UK,Commercial,Communications,Soyuz,1 48067U 21025AB  23028.02254179  .00000339  00000+0  89365-3 0  9998,2 48067  87.8967 205.8623 0001722  64.9715 295.1593 13.13467182 91271,13.13467182,0.0001722,LEO
48068,ONEWEB-0168,2021,109.63,148.0,+,87.9,Active,1,LEO,Russia,UK,Commercial,Communications,Soyuz,1 48068U 21025AC  23028.00772712  .00000285  00000+0  74594-3 0  9993,2 48068  87.9033 205.8973 0001398  96.9024 263.2264 13.13469481 91288,13.13469481,0.0001398,LEO
48069,ONEWEB-0173,2021,109.63,148.0,+,87.9,Active,1,LEO,Russia,UK,Commercial,Communications,Soyuz,1 48069U 21025AD  23028.22991789  .00000124  00000+0  30371-3 0  9992,2 48069  87.9035 205.8655 0000881  91.4689 268.6541 13.13472606 91551,13.13472606,8.81e-05,LEO
48070,ONEWEB-0171,2021,109.63,148.0,+,87.9,Active,1,LEO,Russia,UK,Commercial,Communications,Soyuz,1 48070U 21025AE  23028.18760023  .00000144  00000+0  36055-3 0  9991,2 48070  87.9035 205.8328 0001475 101.5088 258.6206 13.13470087 91363,13.13470087,0.0001475,LEO
48071,ONEWEB-0172,2021,109.63,148.0,+,87.9,Active,1,LEO,Russia,UK,Commercial,Communications,Soyuz,1 48071U 21025AF  23028.24579053  .00000433  00000+0  11517-2 0  9996,2 48071  87.8992 205.8219 0001082  83.0394 277.0858 13.13471704 92267,13.13471704,0.0001082,LEO
48072,ONEWEB-0174,2021,109.63,148.0,+,87.9,Active,1,LEO,Russia,UK,Commercial,Communications,Soyuz,1 48072U 21025AG  23028.22779691  .00000036  00000+0  64865-4 0  9990,2 48072  87.9021 205.8344 0001795 111.1308 249.0013 13.13474560 91589,13.1347456,0.0001795,LEO
48073,ONEWEB-0175,2021,109.63,148.0,+,87.9,Active,1,LEO,Russia,UK,Commercial,Communications,Soyuz,1 48073U 21025AH  23028.17912902  .00000305  00000+0  80061-3 0  9993,2 48073  87.9026 205.8275 0001381  70.8619 289.2660 13.13470904 91239,13.13470904,0.0001381,LEO
48074,ONEWEB-0177,2021,109.63,148.0,+,87.9,Active,1,LEO,Russia,UK,Commercial,Communications,Soyuz,1 48074U 21025AJ  23028.19181776 -.00000017  00000+0 -80665-4 0  9996,2 48074  87.8983 205.8274 0000955 114.8520 245.2709 13.13470431 91428,13.13470431,9.55e-05,LEO
48075,ONEWEB-0178,2021,109.63,148.0,+,87.9,Active,1,LEO,Russia,UK,Commercial,Communications,Soyuz,1 48075U 21025AK  23028.20981056 -.00000278  00000+0 -79538-3 0  9993,2 48075  87.9027 205.8250 0001320 103.2985 256.8291 13.13473622 91471,13.13473622,0.000132,LEO
48076,ONEWEB-0108,2021,109.63,148.0,+,87.9,Active,1,LEO,Russia,UK,Commercial,Communications,Soyuz,1 48076U 21025AL  23028.01830661  .00000456  00000+0  12147-2 0  9996,2 48076  87.9027 205.8606 0001700  93.7456 266.3868 13.13469151 91383,13.13469151,0.00017,LEO
48077,ONEWEB-0169,2021,109.63,148.0,+,87.9,Active,1,LEO,Russia,UK,Commercial,Communications,Soyuz,1 48077U 21025AM  23028.20027731 -.00000290  00000+0 -82864-3 0  9996,2 48077  87.9030 205.8192 0001838 100.1438 259.9899 13.13468108 91296,13.13468108,0.0001838,LEO
48079,GAOFEN 12-2,2021,97.27,3000.0,+,97.91,Active,1,LEO,PRC,China,Government,Earth Observation,Long March,1 48079U 21026A   23028.19008050  .00000989  00000+0  13642-3 0  9991,2 48079  97.9115  20.4093 0001387  83.0550 277.0811 14.80383831 98877,14.80383831,0.0001387,LEO
48082,FEES,2021,94.94,-1.0,+,97.51,Active,0,LEO,Kazakhstan,Italy,Unknown,Unknown,Soyuz,1 48082U 21022AL  23027.85043328  .00024249  00000+0  12306-2 0  9990,2 48082  97.5136 290.2558 0015620  81.4244 278.8758 15.16804611100518,15.16804611,0.001562,LEO
48083,BEESAT-5,2021,95.15,1.0,+,97.51,Active,1,LEO,Kazakhstan,Germany,Civil,Technology Development,Soyuz,1 48083U 21022AM  23028.14219723  .00018599  00000+0  10351-2 0  9997,2 48083  97.5058 288.6725 0020801  94.7797 265.5810 15.13508246100857,15.13508246,0.0020801,LEO
48084,BEESAT-7,2021,95.17,1.0,+,97.51,Active,1,LEO,Kazakhstan,Germany,Civil,Technology Development,Soyuz,1 48084U 21022AN  23027.51198960  .00016653  00000+0  93814-3 0  9992,2 48084  97.5099 288.0313 0021067  96.2523 264.1108 15.13092880100340,15.1309288,0.0021067,LEO
48085,BEESAT-8,2021,95.24,1.0,+,97.51,Active,1,LEO,Kazakhstan,Germany,Civil,Technology Development,Soyuz,1 48085U 21022AP  23028.16246754  .00010815  00000+0  62948-3 0  9998,2 48085  97.5112 288.5590 0021197  95.2325 265.1325 15.12020574100995,15.12020574,0.0021197,LEO
48092,STARLINK-2048,2021,95.59,260.0,+,53.05,Active,1,LEO,USA,USA,Commercial,Communications,Falcon,1 48092U 21027A   23027.66735837  .00001226  00000+0  10120-3 0  9991,2 48092  53.0534 161.1906 0001029  95.9934 264.1172 15.06395363102085,15.06395363,0.0001029,LEO
48093,STARLINK-2404,2021,95.59,260.0,+,53.05,Active,1,LEO,USA,USA,Commercial,Communications,Falcon,1 48093U 21027B   23027.82907072  .00001277  00000+0  10462-3 0  9997,2 48093  53.0507 225.3941 0001319  82.8350 277.2789 15.06396925101204,15.06396925,0.0001319,LEO
48094,STARLINK-2412,2021,95.59,260.0,+,53.05,Active,1,LEO,USA,USA,Commercial,Communications,Falcon,1 48094U 21027C   23027.84655362  .00001255  00000+0  10314-3 0  9994,2 48094  53.0516 235.1081 0001190  91.4708 268.6417 15.06395980100671,15.0639598,0.000119,LEO
48095,STARLINK-2414,2021,95.59,260.0,+,53.05,Active,1,LEO,USA,USA,Commercial,Communications,Falcon,1 48095U 21027D   23027.98661296 -.00001945  00000+0 -11177-3 0  9999,2 48095  53.0538 234.4727 0001071  97.0607 263.0504 15.06392360100690,15.0639236,0.0001071,LEO
48096,STARLINK-2417,2021,95.6,260.0,+,53.05,Active,1,LEO,USA,USA,Commercial,Communications,Falcon,1 48096U 21027E   23027.89447397  .00001322  00000+0  10762-3 0  9990,2 48096  53.0536 234.8906 0001032  81.6206 278.4900 15.06397095101076,15.06397095,0.0001032,LEO
48097,STARLINK-2418,2021,95.59,260.0,+,53.05,Active,1,LEO,USA,USA,Commercial,Communications,Falcon,1 48097U 21027F   23027.80785139  .00001160  00000+0  96746-4 0  9998,2 48097  53.0523 215.2804 0000991  87.5954 272.5148 15.06396164100941,15.06396164,9.91e-05,LEO
48098,STARLINK-2421,2021,95.59,260.0,+,53.05,Active,1,LEO,USA,USA,Commercial,Communications,Falcon,1 48098U 21027G   23027.85116669  .00000044  00000+0  21851-4 0  9995,2 48098  53.0526 225.0837 0001210  93.9186 266.1941 15.06390568101205,15.06390568,0.000121,LEO
48099,STARLINK-2428,2021,95.59,260.0,+,53.05,Active,1,LEO,USA,USA,Commercial,Communications,Falcon,1 48099U 21027H   23027.83918162  .00000432  00000+0  47904-4 0  9990,2 48099  53.0512 235.1479 0001198  86.6984 273.4142 15.06401521100660,15.06401521,0.0001198,LEO
48100,STARLINK-2430,2021,95.59,260.0,+,53.05,Active,1,LEO,USA,USA,Commercial,Communications,Falcon,1 48100U 21027J   23027.73413312  .00000141  00000+0  28327-4 0  9994,2 48100  53.0528 215.6109 0001274  93.0422 267.0713 15.06394992101338,15.06394992,0.0001274,LEO
48101,STARLINK-2436,2021,95.59,260.0,+,53.05,Active,1,LEO,USA,USA,Commercial,Communications,Falcon,1 48101U 21027K   23027.85022407  .00000159  00000+0  29548-4 0  9994,2 48101  53.0526 225.0951 0001168  79.9265 280.1856 15.06392382101219,15.06392382,0.0001168,LEO
48102,STARLINK-2437,2021,95.59,260.0,+,53.05,Active,1,LEO,USA,USA,Commercial,Communications,Falcon,1 48102U 21027L   23027.82628400  .00000570  00000+0  57164-4 0  9999,2 48102  53.0542 215.1924 0001171  85.2040 274.9083 15.06393807101343,15.06393807,0.0001171,LEO
48103,STARLINK-2438,2021,95.59,260.0,+,53.05,Active,1,LEO,USA,USA,Commercial,Communications,Falcon,1 48103U 21027M   23027.83639831  .00001180  00000+0  98118-4 0  9993,2 48103  53.0517 215.1911 0001273  91.6560 268.4575 15.06397902101347,15.06397902,0.0001273,LEO
48104,STARLINK-2439,2021,95.59,260.0,+,53.05,Active,1,LEO,USA,USA,Commercial,Communications,Falcon,1 48104U 21027N   23027.84609452  .00001240  00000+0  10215-3 0  9999,2 48104  53.0527 220.1053 0001089  93.6761 266.4353 15.06395187101280,15.06395187,0.0001089,LEO
48105,STARLINK-2440,2021,95.59,260.0,+,53.05,Active,1,LEO,USA,USA,Commercial,Communications,Falcon,1 48105U 21027P   23027.68714099  .00003648  00000+0  26368-3 0  9996,2 48105  53.0536 165.8212 0001224  74.4358 285.6766 15.06394807102025,15.06394807,0.0001224,LEO
48106,STARLINK-2442,2021,95.59,260.0,+,53.05,Active,1,LEO,USA,USA,Commercial,Communications,Falcon,1 48106U 21027Q   23027.80416509  .00000621  00000+0  60598-4 0  9998,2 48106  53.0527 215.3074 0000950  89.8979 270.2119 15.06397549101349,15.06397549,9.5e-05,LEO
